{
  "type": "FeatureCollection",
  "features": [
    {
      "type": "Feature",
      "properties": {
        "norad_id": 29922,
        "name": "FENGYUN 1C DEB",
        "group": "fengyun-1c-debris",
        "lat": -3.4005674433407607,
        "lon": 39.62565515028933,
        "alt_km": 839.9162727344419,
        "timestamp": "2025-12-07T14:37:05.476990+00:00",
        "meta_object_name": "FENGYUN 1C DEB",
        "meta_object_id": "1999-025HU",
        "meta_epoch": "2025-12-06T21:27:53.420256",
        "meta_mean_motion": 13.98577124,
        "meta_eccentricity": 0.00936463,
        "meta_inclination": 99.1366,
        "meta_ra_of_asc_node": 38.3658,
        "meta_arg_of_pericenter": 23.1694,
        "meta_mean_anomaly": 337.3651,
        "meta_ephemeris_type": 0,
        "meta_classification_type": "U",
        "meta_norad_cat_id": 29922,
        "meta_element_set_no": 999,
        "meta_rev_at_epoch": 96359,
        "meta_bstar": 0.00031401363,
        "meta_mean_motion_dot": 4.23e-06,
        "meta_mean_motion_ddot": 0,
        "tle_line1": "1 29922U 99025HU  25340.89436829  .00000423  00000+0  31401-3 0  9992",
        "tle_line2": "2 29922  99.1366  38.3658 0093646  23.1694 337.3651 13.98577124963593"
      },
      "geometry": {
        "type": "Point",
        "coordinates": [
          39.62565515028933,
          -3.4005674433407607
        ]
      }
    },
    {
      "type": "Feature",
      "properties": {
        "norad_id": 29923,
        "name": "FENGYUN 1C DEB",
        "group": "fengyun-1c-debris",
        "lat": -79.20895124330812,
        "lon": 43.39270465403307,
        "alt_km": 853.9940286037363,
        "timestamp": "2025-12-07T14:37:05.477000+00:00",
        "meta_object_name": "FENGYUN 1C DEB",
        "meta_object_id": "1999-025HV",
        "meta_epoch": "2025-12-06T19:28:18.581952",
        "meta_mean_motion": 14.13877108,
        "meta_eccentricity": 0.00173814,
        "meta_inclination": 98.6884,
        "meta_ra_of_asc_node": 349.2701,
        "meta_arg_of_pericenter": 186.1194,
        "meta_mean_anomaly": 351.7962,
        "meta_ephemeris_type": 0,
        "meta_classification_type": "U",
        "meta_norad_cat_id": 29923,
        "meta_element_set_no": 999,
        "meta_rev_at_epoch": 97191,
        "meta_bstar": 0.0007897719,
        "meta_mean_motion_dot": 1.456e-05,
        "meta_mean_motion_ddot": 0,
        "tle_line1": "1 29923U 99025HV  25340.81132618  .00001456  00000+0  78977-3 0  9990",
        "tle_line2": "2 29923  98.6884 349.2701 0017381 186.1194 351.7962 14.13877108971916"
      },
      "geometry": {
        "type": "Point",
        "coordinates": [
          43.39270465403307,
          -79.20895124330812
        ]
      }
    },
    {
      "type": "Feature",
      "properties": {
        "norad_id": 29924,
        "name": "FENGYUN 1C DEB",
        "group": "fengyun-1c-debris",
        "lat": -17.035454122300262,
        "lon": -2.574260639320432,
        "alt_km": 861.567708609281,
        "timestamp": "2025-12-07T14:37:05.477010+00:00",
        "meta_object_name": "FENGYUN 1C DEB",
        "meta_object_id": "1999-025HW",
        "meta_epoch": "2025-12-06T19:04:06.033792",
        "meta_mean_motion": 14.08887448,
        "meta_eccentricity": 0.00258637,
        "meta_inclination": 98.7346,
        "meta_ra_of_asc_node": 353.9365,
        "meta_arg_of_pericenter": 275.149,
        "meta_mean_anomaly": 258.2175,
        "meta_ephemeris_type": 0,
        "meta_classification_type": "U",
        "meta_norad_cat_id": 29924,
        "meta_element_set_no": 999,
        "meta_rev_at_epoch": 97124,
        "meta_bstar": 0.00019483333,
        "meta_mean_motion_dot": 2.95e-06,
        "meta_mean_motion_ddot": 0,
        "tle_line1": "1 29924U 99025HW  25340.79451428  .00000295  00000+0  19483-3 0  9998",
        "tle_line2": "2 29924  98.7346 353.9365 0025863 275.1490 258.2175 14.08887448971246"
      },
      "geometry": {
        "type": "Point",
        "coordinates": [
          -2.574260639320432,
          -17.035454122300262
        ]
      }
    },
    {
      "type": "Feature",
      "properties": {
        "norad_id": 29926,
        "name": "FENGYUN 1C DEB",
        "group": "fengyun-1c-debris",
        "lat": 59.122631709525834,
        "lon": 164.82561011657748,
        "alt_km": 945.7093410459165,
        "timestamp": "2025-12-07T14:37:05.477021+00:00",
        "meta_object_name": "FENGYUN 1C DEB",
        "meta_object_id": "1999-025HY",
        "meta_epoch": "2025-12-06T23:13:51.184128",
        "meta_mean_motion": 14.33364219,
        "meta_eccentricity": 0.02486368,
        "meta_inclination": 98.2832,
        "meta_ra_of_asc_node": 330.1105,
        "meta_arg_of_pericenter": 317.5148,
        "meta_mean_anomaly": 95.06,
        "meta_ephemeris_type": 0,
        "meta_classification_type": "U",
        "meta_norad_cat_id": 29926,
        "meta_element_set_no": 999,
        "meta_rev_at_epoch": 98498,
        "meta_bstar": 0.00072184608,
        "meta_mean_motion_dot": 2.76e-05,
        "meta_mean_motion_ddot": 0,
        "tle_line1": "1 29926U 99025HY  25340.96795352  .00002760  00000+0  72185-3 0  9993",
        "tle_line2": "2 29926  98.2832 330.1105 0248636 317.5148  95.0600 14.33364219984987"
      },
      "geometry": {
        "type": "Point",
        "coordinates": [
          164.82561011657748,
          59.122631709525834
        ]
      }
    },
    {
      "type": "Feature",
      "properties": {
        "norad_id": 29927,
        "name": "FENGYUN 1C DEB",
        "group": "fengyun-1c-debris",
        "lat": -30.009318809052647,
        "lon": 179.6400740144515,
        "alt_km": 641.503447813353,
        "timestamp": "2025-12-07T14:37:05.477031+00:00",
        "meta_object_name": "FENGYUN 1C DEB",
        "meta_object_id": "1999-025HZ",
        "meta_epoch": "2025-12-06T15:26:34.590624",
        "meta_mean_motion": 14.74212871,
        "meta_eccentricity": 0.00175948,
        "meta_inclination": 99.0836,
        "meta_ra_of_asc_node": 3.8608,
        "meta_arg_of_pericenter": 229.3871,
        "meta_mean_anomaly": 259.0913,
        "meta_ephemeris_type": 0,
        "meta_classification_type": "U",
        "meta_norad_cat_id": 29927,
        "meta_element_set_no": 999,
        "meta_rev_at_epoch": 98557,
        "meta_bstar": 0.0051066033,
        "meta_mean_motion_dot": 0.00033915,
        "meta_mean_motion_ddot": 0,
        "tle_line1": "1 29927U 99025HZ  25340.64345591  .00033915  00000+0  51066-2 0  9995",
        "tle_line2": "2 29927  99.0836   3.8608 0017594 229.3871 259.0913 14.74212871985579"
      },
      "geometry": {
        "type": "Point",
        "coordinates": [
          179.6400740144515,
          -30.009318809052647
        ]
      }
    },
    {
      "type": "Feature",
      "properties": {
        "norad_id": 29928,
        "name": "FENGYUN 1C DEB",
        "group": "fengyun-1c-debris",
        "lat": 64.83777407195399,
        "lon": -153.17936153911114,
        "alt_km": 824.1848476655923,
        "timestamp": "2025-12-07T14:37:05.477041+00:00",
        "meta_object_name": "FENGYUN 1C DEB",
        "meta_object_id": "1999-025JA",
        "meta_epoch": "2025-12-05T19:40:26.902848",
        "meta_mean_motion": 13.88068518,
        "meta_eccentricity": 0.01435294,
        "meta_inclination": 99.585,
        "meta_ra_of_asc_node": 3.9019,
        "meta_arg_of_pericenter": 121.4291,
        "meta_mean_anomaly": 55.3477,
        "meta_ephemeris_type": 0,
        "meta_classification_type": "U",
        "meta_norad_cat_id": 29928,
        "meta_element_set_no": 999,
        "meta_rev_at_epoch": 95395,
        "meta_bstar": 0.0010084339,
        "meta_mean_motion_dot": 1.259e-05,
        "meta_mean_motion_ddot": 0,
        "tle_line1": "1 29928U 99025JA  25339.81975582  .00001259  00000+0  10084-2 0  9993",
        "tle_line2": "2 29928  99.5850   3.9019 0143529 121.4291  55.3477 13.88068518953954"
      },
      "geometry": {
        "type": "Point",
        "coordinates": [
          -153.17936153911114,
          64.83777407195399
        ]
      }
    },
    {
      "type": "Feature",
      "properties": {
        "norad_id": 29929,
        "name": "FENGYUN 1C DEB",
        "group": "fengyun-1c-debris",
        "lat": 81.32638323609342,
        "lon": 165.30153889373716,
        "alt_km": 896.7960650238647,
        "timestamp": "2025-12-07T14:37:05.477051+00:00",
        "meta_object_name": "FENGYUN 1C DEB",
        "meta_object_id": "1999-025JB",
        "meta_epoch": "2025-12-06T17:45:24.384384",
        "meta_mean_motion": 14.01334162,
        "meta_eccentricity": 0.01309039,
        "meta_inclination": 98.6241,
        "meta_ra_of_asc_node": 260.3108,
        "meta_arg_of_pericenter": 193.1776,
        "meta_mean_anomaly": 196.5336,
        "meta_ephemeris_type": 0,
        "meta_classification_type": "U",
        "meta_norad_cat_id": 29929,
        "meta_element_set_no": 999,
        "meta_rev_at_epoch": 95872,
        "meta_bstar": 0.0017548564,
        "meta_mean_motion_dot": 2.809e-05,
        "meta_mean_motion_ddot": 0,
        "tle_line1": "1 29929U 99025JB  25340.73986556  .00002809  00000+0  17549-2 0  9995",
        "tle_line2": "2 29929  98.6241 260.3108 0130903 193.1776 196.5336 14.01334162958722"
      },
      "geometry": {
        "type": "Point",
        "coordinates": [
          165.30153889373716,
          81.32638323609342
        ]
      }
    }
  ]
}